{
  "type": "FeatureCollection",
  "metadata": {
    "source": "OPENSTREETMAP_OVERPASS_SNAPSHOT",
    "license": "Open Database License (ODbL) 1.0",
    "attribution": "\u00a9 OpenStreetMap contributors",
    "retrieved_at": "2026-09-25T19:24:28.743324+00:00",
    "bbox": [
      -90.08553068272339,
      29.7583155175424,
      -90.07989924402005,
      29.7639469562458
    ],
    "crs": "EPSG:4326",
    "feature_counts": {
      "road_segment": 5,
      "building": 16
    }
  },
  "features": [
    {
      "type": "Feature",
      "geometry": {
        "type": "LineString",
        "coordinates": [
          [
            -90.080665,
            29.767417
          ],
          [
            -90.079986,
            29.766931
          ],
          [
            -90.079032,
            29.766132
          ],
          [
            -90.078987,
            29.766073
          ],
          [
            -90.078979,
            29.765865
          ],
          [
            -90.079078,
            29.764554
          ],
          [
            -90.079093,
            29.764099
          ],
          [
            -90.079086,
            29.763555
          ],
          [
            -90.079177,
            29.761775
          ],
          [
            -90.079872,
            29.761484
          ],
          [
            -90.079994,
            29.761421
          ],
          [
            -90.080047,
            29.761373
          ],
          [
            -90.080184,
            29.761186
          ],
          [
            -90.080703,
            29.760372
          ],
          [
            -90.080947,
            29.75996
          ],
          [
            -90.081428,
            29.759233
          ],
          [
            -90.082542,
            29.75739
          ],
          [
            -90.083656,
            29.755588
          ],
          [
            -90.084518,
            29.75431
          ],
          [
            -90.084678,
            29.754137
          ],
          [
            -90.084831,
            29.754011
          ],
          [
            -90.084968,
            29.753925
          ],
          [
            -90.085174,
            29.753849
          ],
          [
            -90.085456,
            29.753793
          ],
          [
            -90.085792,
            29.753797
          ],
          [
            -90.086158,
            29.753866
          ],
          [
            -90.088066,
            29.754329
          ],
          [
            -90.088577,
            29.754428
          ],
          [
            -90.089836,
            29.75459
          ],
          [
            -90.089958,
            29.754638
          ],
          [
            -90.090126,
            29.754774
          ],
          [
            -90.091575,
            29.756259
          ],
          [
            -90.092247,
            29.75707
          ],
          [
            -90.092414,
            29.757236
          ],
          [
            -90.092506,
            29.757286
          ],
          [
            -90.09259,
            29.757291
          ],
          [
            -90.092819,
            29.757211
          ],
          [
            -90.092887,
            29.757162
          ],
          [
            -90.093025,
            29.757013
          ],
          [
            -90.093116,
            29.756959
          ],
          [
            -90.093399,
            29.756834
          ],
          [
            -90.093963,
            29.756628
          ],
          [
            -90.094169,
            29.756488
          ],
          [
            -90.09436,
            29.756307
          ],
          [
            -90.094581,
            29.75604
          ],
          [
            -90.094619,
            29.755979
          ],
          [
            -90.09465,
            29.75588
          ],
          [
            -90.094642,
            29.755704
          ],
          [
            -90.094551,
            29.755474
          ],
          [
            -90.094459,
            29.755298
          ],
          [
            -90.094345,
            29.755157
          ],
          [
            -90.094345,
            29.755102
          ],
          [
            -90.094627,
            29.754608
          ],
          [
            -90.095458,
            29.753433
          ],
          [
            -90.095687,
            29.753076
          ],
          [
            -90.095832,
            29.752929
          ],
          [
            -90.096153,
            29.752756
          ],
          [
            -90.096488,
            29.752607
          ],
          [
            -90.096717,
            29.752557
          ],
          [
            -90.096954,
            29.752521
          ],
          [
            -90.097351,
            29.75249
          ],
          [
            -90.097633,
            29.7525
          ],
          [
            -90.098892,
            29.752731
          ],
          [
            -90.101165,
            29.753053
          ],
          [
            -90.101234,
            29.753051
          ],
          [
            -90.101379,
            29.753017
          ],
          [
            -90.101814,
            29.752765
          ],
          [
            -90.102561,
            29.752439
          ],
          [
            -90.103065,
            29.752239
          ],
          [
            -90.103187,
            29.752243
          ],
          [
            -90.103263,
            29.752281
          ],
          [
            -90.10353,
            29.752611
          ],
          [
            -90.103546,
            29.752658
          ],
          [
            -90.103546,
            29.752773
          ],
          [
            -90.103477,
            29.753292
          ],
          [
            -90.103515,
            29.753366
          ],
          [
            -90.103553,
            29.753385
          ],
          [
            -90.104644,
            29.75353
          ],
          [
            -90.104766,
            29.753591
          ],
          [
            -90.10485,
            29.753688
          ],
          [
            -90.105644,
            29.754901
          ],
          [
            -90.106788,
            29.756771
          ],
          [
            -90.107513,
            29.757892
          ],
          [
            -90.108901,
            29.7598836
          ]
        ]
      },
      "properties": {
        "feature_class": "road_segment",
        "road_id": "osm-way-12654404",
        "name": "osm-way-12654404",
        "highway": "residential",
        "lanes": null,
        "osm_type": "way",
        "osm_id": 12654404,
        "source": "OpenStreetMap"
      }
    },
    {
      "type": "Feature",
      "geometry": {
        "type": "LineString",
        "coordinates": [
          [
            -90.0999549,
            29.760669
          ],
          [
            -90.098731,
            29.760728
          ],
          [
            -90.097793,
            29.760868
          ],
          [
            -90.096969,
            29.760913
          ],
          [
            -90.096588,
            29.760915
          ],
          [
            -90.095207,
            29.760881
          ],
          [
            -90.095115,
            29.76089
          ],
          [
            -90.094772,
            29.760917
          ],
          [
            -90.094589,
            29.760965
          ],
          [
            -90.0945199,
            29.7609799
          ],
          [
            -90.094375,
            29.761011
          ],
          [
            -90.0941416,
            29.7610679
          ],
          [
            -90.094047,
            29.761091
          ],
          [
            -90.093223,
            29.761287
          ],
          [
            -90.092918,
            29.761365
          ],
          [
            -90.092445,
            29.761491
          ],
          [
            -90.09085,
            29.761852
          ],
          [
            -90.090644,
            29.761919
          ],
          [
            -90.090469,
            29.761974
          ],
          [
            -90.090255,
            29.762056
          ],
          [
            -90.089927,
            29.76218
          ],
          [
            -90.089447,
            29.762311
          ],
          [
            -90.089286,
            29.762372
          ],
          [
            -90.088562,
            29.762533
          ],
          [
            -90.087944,
            29.762704
          ],
          [
            -90.087806,
            29.762741
          ],
          [
            -90.087127,
            29.763029
          ],
          [
            -90.086517,
            29.763242
          ],
          [
            -90.086181,
            29.763341
          ],
          [
            -90.086044,
            29.763393
          ],
          [
            -90.0858345,
            29.7634731
          ],
          [
            -90.085746,
            29.763507
          ],
          [
            -90.085502,
            29.763612
          ],
          [
            -90.085365,
            29.763694
          ],
          [
            -90.085159,
            29.763822
          ],
          [
            -90.084846,
            29.764039
          ],
          [
            -90.0845507,
            29.7642498
          ],
          [
            -90.084182,
            29.764513
          ],
          [
            -90.0841055,
            29.7645685
          ],
          [
            -90.084014,
            29.764635
          ],
          [
            -90.08377,
            29.764802
          ],
          [
            -90.08329,
            29.765123
          ],
          [
            -90.082794,
            29.765474
          ],
          [
            -90.082328,
            29.76585
          ],
          [
            -90.081085,
            29.767005
          ],
          [
            -90.080665,
            29.767417
          ]
        ]
      },
      "properties": {
        "feature_class": "road_segment",
        "road_id": "osm-way-12656416",
        "name": "Jean Lafitte Boulevard",
        "highway": "tertiary",
        "lanes": 2,
        "osm_type": "way",
        "osm_id": 12656416,
        "source": "OpenStreetMap"
      }
    },
    {
      "type": "Feature",
      "geometry": {
        "type": "LineString",
        "coordinates": [
          [
            -90.0792483,
            29.7622709
          ],
          [
            -90.0792013,
            29.7624176
          ],
          [
            -90.0792152,
            29.7625235
          ],
          [
            -90.0792779,
            29.762581
          ],
          [
            -90.0793895,
            29.7626098
          ],
          [
            -90.0822687,
            29.7630639
          ],
          [
            -90.0824182,
            29.7631218
          ]
        ]
      },
      "properties": {
        "feature_class": "road_segment",
        "road_id": "osm-way-791288888",
        "name": "Estuary Road",
        "highway": "service",
        "lanes": null,
        "osm_type": "way",
        "osm_id": 791288888,
        "source": "OpenStreetMap"
      }
    },
    {
      "type": "Feature",
      "geometry": {
        "type": "LineString",
        "coordinates": [
          [
            -90.0824182,
            29.7631218
          ],
          [
            -90.0825125,
            29.7631906
          ],
          [
            -90.0841055,
            29.7645685
          ]
        ]
      },
      "properties": {
        "feature_class": "road_segment",
        "road_id": "osm-way-791288889",
        "name": "Estuary Road",
        "highway": "service",
        "lanes": null,
        "osm_type": "way",
        "osm_id": 791288889,
        "source": "OpenStreetMap"
      }
    },
    {
      "type": "Feature",
      "geometry": {
        "type": "LineString",
        "coordinates": [
          [
            -90.0858345,
            29.7634731
          ],
          [
            -90.0856278,
            29.7632858
          ],
          [
            -90.0854102,
            29.7631131
          ],
          [
            -90.0852723,
            29.762998
          ],
          [
            -90.0850375,
            29.7627999
          ],
          [
            -90.0849526,
            29.7627181
          ],
          [
            -90.084946,
            29.7626824
          ],
          [
            -90.0849566,
            29.7625765
          ],
          [
            -90.0849606,
            29.7624936
          ],
          [
            -90.0849539,
            29.7624464
          ],
          [
            -90.0849102,
            29.7624015
          ],
          [
            -90.0847496,
            29.7622092
          ],
          [
            -90.084483,
            29.7619443
          ],
          [
            -90.0844008,
            29.7618649
          ],
          [
            -90.0843399,
            29.7618351
          ]
        ]
      },
      "properties": {
        "feature_class": "road_segment",
        "road_id": "osm-way-794401251",
        "name": "Ditcharo Street",
        "highway": "service",
        "lanes": null,
        "osm_type": "way",
        "osm_id": 794401251,
        "source": "OpenStreetMap"
      }
    },
    {
      "type": "Feature",
      "geometry": {
        "type": "Polygon",
        "coordinates": [
          [
            [
              -90.0852283,
              29.7626457
            ],
            [
              -90.0851919,
              29.7626168
            ],
            [
              -90.0853584,
              29.7624585
            ],
            [
              -90.0853948,
              29.7624874
            ],
            [
              -90.0852283,
              29.7626457
            ]
          ]
        ]
      },
      "properties": {
        "feature_class": "building",
        "building_id": "osm-way-1064972963",
        "name": "osm-way-1064972963",
        "building": "yes",
        "osm_type": "way",
        "osm_id": 1064972963,
        "source": "OpenStreetMap"
      }
    },
    {
      "type": "Feature",
      "geometry": {
        "type": "Polygon",
        "coordinates": [
          [
            [
              -90.0848356,
              29.7623922
            ],
            [
              -90.0848538,
              29.7625968
            ],
            [
              -90.0848014,
              29.7626003
            ],
            [
              -90.0847831,
              29.7623957
            ],
            [
              -90.0848356,
              29.7623922
            ]
          ]
        ]
      },
      "properties": {
        "feature_class": "building",
        "building_id": "osm-way-1064972964",
        "name": "osm-way-1064972964",
        "building": "yes",
        "osm_type": "way",
        "osm_id": 1064972964,
        "source": "OpenStreetMap"
      }
    },
    {
      "type": "Feature",
      "geometry": {
        "type": "Polygon",
        "coordinates": [
          [
            [
              -90.0853087,
              29.7627082
            ],
            [
              -90.0854698,
              29.7625484
            ],
            [
              -90.0855484,
              29.7626088
            ],
            [
              -90.0853827,
              29.7627731
            ],
            [
              -90.0853087,
              29.7627082
            ]
          ]
        ]
      },
      "properties": {
        "feature_class": "building",
        "building_id": "osm-way-1064972965",
        "name": "osm-way-1064972965",
        "building": "yes",
        "osm_type": "way",
        "osm_id": 1064972965,
        "source": "OpenStreetMap"
      }
    },
    {
      "type": "Feature",
      "geometry": {
        "type": "Polygon",
        "coordinates": [
          [
            [
              -90.0852475,
              29.7626479
            ],
            [
              -90.0853076,
              29.7625885
            ],
            [
              -90.0853622,
              29.7626301
            ],
            [
              -90.0853021,
              29.7626895
            ],
            [
              -90.0852475,
              29.7626479
            ]
          ]
        ]
      },
      "properties": {
        "feature_class": "building",
        "building_id": "osm-way-1064972967",
        "name": "osm-way-1064972967",
        "building": "yes",
        "osm_type": "way",
        "osm_id": 1064972967,
        "source": "OpenStreetMap"
      }
    },
    {
      "type": "Feature",
      "geometry": {
        "type": "Polygon",
        "coordinates": [
          [
            [
              -90.084882,
              29.7634915
            ],
            [
              -90.0848093,
              29.7634308
            ],
            [
              -90.0848626,
              29.7633827
            ],
            [
              -90.0849353,
              29.7634435
            ],
            [
              -90.084882,
              29.7634915
            ]
          ]
        ]
      },
      "properties": {
        "feature_class": "building",
        "building_id": "osm-way-1064972973",
        "name": "osm-way-1064972973",
        "building": "yes",
        "osm_type": "way",
        "osm_id": 1064972973,
        "source": "OpenStreetMap"
      }
    },
    {
      "type": "Feature",
      "geometry": {
        "type": "Polygon",
        "coordinates": [
          [
            [
              -90.0843261,
              29.7622063
            ],
            [
              -90.0843044,
              29.7621803
            ],
            [
              -90.0844212,
              29.7621069
            ],
            [
              -90.0844429,
              29.7621329
            ],
            [
              -90.0843261,
              29.7622063
            ]
          ]
        ]
      },
      "properties": {
        "feature_class": "building",
        "building_id": "osm-way-1064972974",
        "name": "osm-way-1064972974",
        "building": "yes",
        "osm_type": "way",
        "osm_id": 1064972974,
        "source": "OpenStreetMap"
      }
    },
    {
      "type": "Feature",
      "geometry": {
        "type": "Polygon",
        "coordinates": [
          [
            [
              -90.0846479,
              29.7619702
            ],
            [
              -90.0846262,
              29.7619441
            ],
            [
              -90.0847429,
              29.7618707
            ],
            [
              -90.0847646,
              29.7618967
            ],
            [
              -90.0846479,
              29.7619702
            ]
          ]
        ]
      },
      "properties": {
        "feature_class": "building",
        "building_id": "osm-way-1064972975",
        "name": "osm-way-1064972975",
        "building": "yes",
        "osm_type": "way",
        "osm_id": 1064972975,
        "source": "OpenStreetMap"
      }
    },
    {
      "type": "Feature",
      "geometry": {
        "type": "Polygon",
        "coordinates": [
          [
            [
              -90.0850767,
              29.76313
            ],
            [
              -90.0850068,
              29.7630687
            ],
            [
              -90.085099,
              29.762985
            ],
            [
              -90.0851629,
              29.7630456
            ],
            [
              -90.0850767,
              29.76313
            ]
          ]
        ]
      },
      "properties": {
        "feature_class": "building",
        "building_id": "osm-way-1064972976",
        "name": "osm-way-1064972976",
        "building": "yes",
        "osm_type": "way",
        "osm_id": 1064972976,
        "source": "OpenStreetMap"
      }
    },
    {
      "type": "Feature",
      "geometry": {
        "type": "Polygon",
        "coordinates": [
          [
            [
              -90.0846984,
              29.7620233
            ],
            [
              -90.0846767,
              29.7619973
            ],
            [
              -90.0847935,
              29.7619239
            ],
            [
              -90.0848152,
              29.7619499
            ],
            [
              -90.0846984,
              29.7620233
            ]
          ]
        ]
      },
      "properties": {
        "feature_class": "building",
        "building_id": "osm-way-1064972977",
        "name": "osm-way-1064972977",
        "building": "yes",
        "osm_type": "way",
        "osm_id": 1064972977,
        "source": "OpenStreetMap"
      }
    },
    {
      "type": "Feature",
      "geometry": {
        "type": "Polygon",
        "coordinates": [
          [
            [
              -90.0844381,
              29.7622868
            ],
            [
              -90.084408,
              29.7622574
            ],
            [
              -90.0845914,
              29.7621162
            ],
            [
              -90.0846214,
              29.7621457
            ],
            [
              -90.0844381,
              29.7622868
            ]
          ]
        ]
      },
      "properties": {
        "feature_class": "building",
        "building_id": "osm-way-1064972979",
        "name": "osm-way-1064972979",
        "building": "yes",
        "osm_type": "way",
        "osm_id": 1064972979,
        "source": "OpenStreetMap"
      }
    },
    {
      "type": "Feature",
      "geometry": {
        "type": "Polygon",
        "coordinates": [
          [
            [
              -90.0845133,
              29.7623473
            ],
            [
              -90.084483,
              29.7623175
            ],
            [
              -90.084621,
              29.7622118
            ],
            [
              -90.0846513,
              29.7622416
            ],
            [
              -90.0845133,
              29.7623473
            ]
          ]
        ]
      },
      "properties": {
        "feature_class": "building",
        "building_id": "osm-way-1064972980",
        "name": "osm-way-1064972980",
        "building": "yes",
        "osm_type": "way",
        "osm_id": 1064972980,
        "source": "OpenStreetMap"
      }
    },
    {
      "type": "Feature",
      "geometry": {
        "type": "Polygon",
        "coordinates": [
          [
            [
              -90.0845809,
              29.7624197
            ],
            [
              -90.0845516,
              29.7623919
            ],
            [
              -90.0847321,
              29.7622485
            ],
            [
              -90.0847614,
              29.7622764
            ],
            [
              -90.0845809,
              29.7624197
            ]
          ]
        ]
      },
      "properties": {
        "feature_class": "building",
        "building_id": "osm-way-1064972981",
        "name": "osm-way-1064972981",
        "building": "yes",
        "osm_type": "way",
        "osm_id": 1064972981,
        "source": "OpenStreetMap"
      }
    },
    {
      "type": "Feature",
      "geometry": {
        "type": "Polygon",
        "coordinates": [
          [
            [
              -90.0851134,
              29.7636072
            ],
            [
              -90.0850289,
              29.7634876
            ],
            [
              -90.0849796,
              29.7634164
            ],
            [
              -90.0850206,
              29.7633948
            ],
            [
              -90.0850574,
              29.7634479
            ],
            [
              -90.0851028,
              29.7634239
            ],
            [
              -90.0851859,
              29.763541
            ],
            [
              -90.0851542,
              29.7635576
            ],
            [
              -90.0851682,
              29.7635777
            ],
            [
              -90.0851134,
              29.7636072
            ]
          ]
        ]
      },
      "properties": {
        "feature_class": "building",
        "building_id": "osm-way-1064972985",
        "name": "osm-way-1064972985",
        "building": "yes",
        "osm_type": "way",
        "osm_id": 1064972985,
        "source": "OpenStreetMap"
      }
    },
    {
      "type": "Feature",
      "geometry": {
        "type": "Polygon",
        "coordinates": [
          [
            [
              -90.0842634,
              29.7621479
            ],
            [
              -90.0842417,
              29.7621219
            ],
            [
              -90.0843584,
              29.7620484
            ],
            [
              -90.0843802,
              29.7620745
            ],
            [
              -90.0842634,
              29.7621479
            ]
          ]
        ]
      },
      "properties": {
        "feature_class": "building",
        "building_id": "osm-way-1064972987",
        "name": "osm-way-1064972987",
        "building": "yes",
        "osm_type": "way",
        "osm_id": 1064972987,
        "source": "OpenStreetMap"
      }
    },
    {
      "type": "Feature",
      "geometry": {
        "type": "Polygon",
        "coordinates": [
          [
            [
              -90.0853023,
              29.7633124
            ],
            [
              -90.0853803,
              29.7632543
            ],
            [
              -90.0854227,
              29.7632972
            ],
            [
              -90.0854814,
              29.7632535
            ],
            [
              -90.0855592,
              29.7633323
            ],
            [
              -90.0854407,
              29.7634205
            ],
            [
              -90.0853797,
              29.7633588
            ],
            [
              -90.0853616,
              29.7633723
            ],
            [
              -90.0853023,
              29.7633124
            ]
          ]
        ]
      },
      "properties": {
        "feature_class": "building",
        "building_id": "osm-way-1064972993",
        "name": "osm-way-1064972993",
        "building": "yes",
        "osm_type": "way",
        "osm_id": 1064972993,
        "source": "OpenStreetMap"
      }
    },
    {
      "type": "Feature",
      "geometry": {
        "type": "Polygon",
        "coordinates": [
          [
            [
              -90.0841716,
              29.7620516
            ],
            [
              -90.0841498,
              29.762026
            ],
            [
              -90.0842696,
              29.7619492
            ],
            [
              -90.0842914,
              29.7619748
            ],
            [
              -90.0841716,
              29.7620516
            ]
          ]
        ]
      },
      "properties": {
        "feature_class": "building",
        "building_id": "osm-way-1064972994",
        "name": "osm-way-1064972994",
        "building": "yes",
        "osm_type": "way",
        "osm_id": 1064972994,
        "source": "OpenStreetMap"
      }
    }
  ]
}